INMARSAT 4-F2 (SOUTHPA*)
1 28899U 05044A   26138.69141983 -.00000260  00000+0  00000+0 0  9997
2 28899   5.0584  43.7406 0002748  13.7227 211.3181  1.00270998 75226
GSAT-8 (GAGAN/PRN 127)  
1 37605U 11022A   26138.82156152  .00000086  00000+0  00000+0 0  9999
2 37605   2.0565  82.1581 0003594 220.8850 284.2949  1.00272306 52929
LUCH 5A (SDCM/PRN 140)  
1 37951U 11074B   26138.62985681 -.00000048  00000+0  00000+0 0  9994
2 37951   8.6808  74.2314 0002158 330.2890 225.6574  1.00274643 52756
SES-5 (EGNOS/PRN 136)   
1 38652U 12036A   26138.68239340  .00000036  00000+0  00000+0 0  9998
2 38652   0.0548 304.8282 0001896 104.2833  77.9038  1.00272028 44166
GSAT-10 (GAGAN/PRN 128) 
1 38779U 12051B   26138.82708527 -.00000163  00000+0  00000+0 0  9991
2 38779   0.0617 262.6146 0007217 179.4275 175.1645  1.00273070 49809
LUCH 5B (SDCM/PRN 125)  
1 38977U 12061A   26138.02318696 -.00000137  00000+0  00000+0 0  9999
2 38977  10.4194  50.1754 0001620 171.7402   5.8380  1.00270028 49308
ASTRA 5B (EGNOS/PRN 123)
1 39617U 14011B   26138.81532148  .00000139  00000+0  00000+0 0  9996
2 39617   0.0479   2.6867 0002193  33.5979 157.2565  1.00273463 44373
LUCH 5V (SDCM/PRN 141)  
1 39727U 14023A   26138.85233545 -.00000269  00000+0  00000+0 0  9999
2 39727   5.0609  70.0305 0001811  11.3546 196.7257  1.00274151 44068
GSAT-15 (GAGAN/PRN 139) 
1 41028U 15065A   26138.89199565 -.00000256  00000+0  00000+0 0  9996
2 41028   0.0164 244.5820 0003349 175.1181 231.4918  1.00269223 38505
EUTELSAT 117 WEST B (W*)
1 41589U 16038B   26138.64487344 -.00000009  00000+0  00000+0 0  9993
2 41589   0.0211 148.7115 0000409 283.4363 279.3379  1.00270093 36362
SES-15 (WAAS/PRN 133)   
1 42709U 17026A   26138.64253343  .00000062  00000+0  00000+0 0  9994
2 42709   0.0208 328.6289 0000560  30.7770 339.0938  1.00268009  7139
QZS-2 (QZSS/PRN 194)    
1 42738U 17028A   26138.60870816 -.00000187  00000+0  00000+0 0  9993
2 42738  39.4728 243.5900 0761640 268.9537  83.0393  1.00291579  7339
QZS-3 (QZSS/PRN 199)    
1 42917U 17048A   26138.83583862 -.00000347  00000+0  00000+0 0  9999
2 42917   0.0759 126.2284 0001810 285.5691 252.6764  1.00269910 31966
QZS-4 (QZSS/PRN 195)    
1 42965U 17062A   26137.87607197 -.00000321  00000+0  00000+0 0  9991
2 42965  40.1258 343.8687 0745926 271.2428  74.9650  1.00259163 31491
BEIDOU-3 G1 (PRN 130)   
1 43683U 18085A   26138.63113251 -.00000107  00000+0  00000+0 0  9995
2 43683   2.7930  98.1901 0007829 340.9681 184.3362  1.00271382 27765
EUTELSAT 5 WEST B (EGN*)
1 44624U 19067A   26138.68239340 -.00000041  00000+0  00000+0 0  9992
2 44624   0.0656 344.6665 0002903  68.1613  64.1968  1.00269886 24147
BEIDOU-3 G2 (PRN 144)   
1 45344U 20017A   26138.84065587 -.00000140  00000+0  00000+0 0  9997
2 45344   2.8055  46.8789 0002296   8.0379 204.2903  1.00271369 22968
BEIDOU-3 G3 (PRN 143)   
1 45807U 20040A   26138.83254529 -.00000353  00000+0  00000+0 0  9998
2 45807   2.3754  67.3621 0003056 331.5001 247.9261  1.00271666 21776
GALAXY 30 (WAAS/PRN 135)
1 46114U 20056C   26138.64331344  .00000039  00000+0  00000+0 0  9997
2 46114   0.0149 336.6932 0002009  73.7695 292.4595  1.00271457 20995
QZS-1R (QZSS/PRN 196)   
1 49336U 21096A   26137.72544839 -.00000240  00000+0  00000+0 0  9999
2 49336  37.4017  80.0331 0752528 271.2321 280.7165  1.00265511 16705
QZS-6 (QZSS/PRN 200)    
1 62876U 25023A   26138.88774222 -.00000232  00000+0  00000+0 0  9997
2 62876   0.0293 292.4109 0002090 126.9093 227.3531  1.00272421  4650
